{"fetched_at":"2026-03-29T02:12:04Z","count":15717,"tles":[{"name":"YAOGAN-36 02A","line1":"1 54042U 22133A   26086.76627216  .00014068  00000+0  57638-3 0  9995","line2":"2 54042  35.0060 271.7871 0030429 189.0849 170.9318 15.23030572192336","category":"Other"}]}